OSCAR 7 (AO-7)          
1 07530U 74089B   19004.90384774 -.00000051  00000-0 -35810-4 0  9998
2 07530 101.7196 334.4216 0012017 306.6283  67.4220 12.53636077 19870
UOSAT 2 (UO-11)         
1 14781U 84021B   19005.88527026  .00000042  00000-0  11298-4 0  9990
2 14781  97.6278  38.1995 0009590 131.5682 228.6356 14.83055480874487
LUSAT (LO-19)           
1 20442U 90005G   19004.87634276 -.00000011  00000-0  12360-4 0  9992
2 20442  98.6319 307.3130 0010660 276.4979  83.4991 14.32914330512714
ITAMSAT                 
1 22826U 93061D   19005.39729011 -.00000014  00000-0  12401-4 0  9994
2 22826  98.8812 350.4401 0009943 104.8184 255.4100 14.30381035318665
RADIO ROSTO (RS-15)     
1 23439U 94085A   19004.91863209 -.00000047  00000-0 -12066-3 0  9990
2 23439  64.8181  22.5888 0150155 144.8776 265.3568 11.27567724989315
JAS-2 (FO-29)           
1 24278U 96046B   19005.17142124 -.00000012  00000-0  26323-4 0  9999
2 24278  98.5139 181.0870 0349513 306.9080  50.0503 13.53088434105554
TECHSAT 1B (GO-32)      
1 25397U 98043D   19005.09135397 -.00000029  00000-0  64277-5 0  9995
2 25397  98.6725 307.3823 0001981 123.7976 236.3391 14.23657974 64459
ISS (ZARYA)             
1 25544U 98067A   19006.11399765  .00000814  00000-0  19775-4 0  9993
2 25544  51.6413  87.4350 0002334 244.6282 185.6265 15.53734734150077
PCSAT (NO-44)           
1 26931U 01043C   19005.48083963 -.00000040  00000-0  16333-4 0  9990
2 26931  67.0520  67.4193 0005746 262.4664  97.5785 14.30528429901486
SAUDISAT 1C (SO-50)     
1 27607U 02058C   19004.98709608 -.00000047  00000-0  14300-4 0  9992
2 27607  64.5532 193.1439 0080531 287.8067  71.4262 14.75509888862737
CUTE-1 (CO-55)          
1 27844U 03031E   19005.02234322  .00000037  00000-0  36181-4 0  9998
2 27844  98.6856  15.6872 0010432 143.0769 217.1128 14.22153235804886
CUBESAT XI-IV (CO-57)   
1 27848U 03031J   19004.75668462  .00000029  00000-0  33088-4 0  9991
2 27848  98.6938  15.8854 0010146 154.0701 206.0987 14.21751960804702
MOZHAYETS 4 (RS-22)     
1 27939U 03042A   19005.71049764  .00000092  00000-0  25054-4 0  9993
2 27939  98.0147 144.9798 0011974 223.4517 136.5757 14.66744544816508
CUBESAT XI 5            
1 28895U 05043F   19005.36731954  .00000107  00000-0  29346-4 0  9993
2 28895  97.9337 153.9861 0017589 147.2875 212.9421 14.63618700703455
CUTE-1.7+APD II (CO-65) 
1 32785U 08021C   19004.89567811  .00000164  00000-0  23354-4 0  9997
2 32785  97.5460  12.4308 0014618  89.7272 270.5621 14.88230685579178
DELFI-C3 (DO-64)        
1 32789U 08021G   19004.72267340  .00000434  00000-0  33408-4 0  9998
2 32789  97.4877  59.1976 0011467 336.2469  23.8228 15.06565161582121
SEEDS II (CO-66)        
1 32791U 08021J   19004.98808456  .00000296  00000-0  35520-4 0  9991
2 32791  97.5295  18.2757 0014785  69.0674 291.2125 14.90707030579574
YUBILEINY (RS-30)       
1 32953U 08025A   19005.85959073  .00000021  00000-0  75656-4 0  9994
2 32953  82.5025 246.6292 0019431 125.2018 235.0884 12.43087038481957
KKS-1 (KISEKI)          
1 33499U 09002H   19005.21607751  .00000098  00000-0  22592-4 0  9994
2 33499  98.3536 198.5922 0009503  17.6220 342.5316 14.75395467534978
SWISSCUBE               
1 35932U 09051B   19004.90056692  .00000087  00000-0  30703-4 0  9990
2 35932  98.5670 166.2344 0006806 316.7432  43.3230 14.56232295492796
BEESAT                  
1 35933U 09051C   19005.39495647  .00000086  00000-0  30444-4 0  9993
2 35933  98.5705 168.4128 0005182 332.4343  27.6578 14.56328109492972
ITUPSAT 1               
1 35935U 09051E   19005.22084073  .00000054  00000-0  23617-4 0  9993
2 35935  98.5816 168.4810 0007433 325.9089  34.1629 14.55495547492712
XIWANG-1 (HOPE-1)       
1 36122U 09072B   19005.18548586 -.00000040  00000-0  63652-5 0  9994
2 36122 100.0721  15.3188 0007600  11.7749 348.3544 13.16347748435237
JUGNU                   
1 37839U 11058B   19005.86355131  .00000294  00000-0  15174-4 0  9999
2 37839  19.9603 248.2448 0018826 320.9826 122.2601 14.12638623374067
SRMSAT                  
1 37841U 11058D   19005.19403823  .00000304  00000-0  21883-4 0  9996
2 37841  19.9727 305.6782 0011942 188.9498 313.4461 14.10622056373434
M-CUBED & EXP-1 PRIME   
1 37855U 11061F   19005.41455244  .00002026  00000-0  10950-3 0  9999
2 37855 101.7252 176.5536 0174906 203.5023 155.8126 15.05015233392066
STRAND-1                
1 39090U 13009E   19004.82199200  .00000035  00000-0  27426-4 0  9992
2 39090  98.5008 213.3847 0010144  61.9979 298.2232 14.35065491306748
SOMP                    
1 39134U 13015E   19005.13064963  .00000707  00000-0  42342-4 0  9990
2 39134  64.8616 193.3932 0014277 327.6106  32.4143 15.19706387315585
BEESAT-3                
1 39135U 13015F   19004.96361079  .00000607  00000-0  40324-4 0  9996
2 39135  64.8675 209.9682 0010624 262.4559  97.5360 15.17111465315259
BEESAT-2                
1 39136U 13015G   19005.53319191  .00000588  00000-0  39943-4 0  9992
2 39136  64.8673 211.4725 0007497 274.1273  85.8996 15.16556706315278
ZACUBE-1 (TSHEPISOSAT)  
1 39417U 13066B   19005.46639598  .00000145  00000-0  24704-4 0  9996
2 39417  97.5716  28.1237 0058282 211.1474 148.6280 14.81035832276738
GOMX 1                  
1 39430U 13066Q   19005.87502465  .00000233  00000-0  50821-4 0  9995
2 39430  97.7237 333.4419 0152522  51.1899 310.2813 14.59177561272716
CUBEBUG-2 (LO-74)       
1 39440U 13066AA  19005.06299051  .00000137  00000-0  26341-4 0  9994
2 39440  97.5986  13.2700 0078940 259.6445  99.5860 14.75775939275695
FUNCUBE-1 (AO-73)       
1 39444U 13066AE  19005.01649872  .00000178  00000-0  28325-4 0  9992
2 39444  97.5714  29.4703 0057523 207.1461 152.6742 14.81838654275545
UWE-3                   
1 39446U 13066AG  19005.82295757  .00000136  00000-0  24927-4 0  9990
2 39446  97.5836  20.7598 0068928 234.0776 125.4027 14.78310188275050
SPROUT                  
1 39770U 14029E   19005.73667690  .00000696  00000-0  83569-4 0  9997
2 39770  97.8810 110.2116 0007855 264.0387  95.9931 14.87127391250464
UNISAT-6                
1 40012U 14033C   19005.52603576  .00000121  00000-0  25732-4 0  9994
2 40012  97.7795 238.9614 0057046 267.3781  92.0897 14.73912090244508
DUCHIFAT-1              
1 40021U 14033M   19004.73930961  .00000365  00000-0  43299-4 0  9995
2 40021  97.9205 288.8414 0011753 231.0417 128.9754 14.90488859246971
QB50P1                  
1 40025U 14033R   19005.71927778  .00000236  00000-0  31190-4 0  9994
2 40025  97.9064 285.6740 0011242 235.9875 124.0275 14.88844194246924
NUDT-PHONESAT           
1 40900U 15049B   19005.72723880  .00001705  00000-0  77332-4 0  9993
2 40900  97.4396  16.7365 0014371  45.4722  72.7712 15.22117938182715
ZDPS 2A                 
1 40901U 15049C   19005.76138708  .00000652  00000-0  35855-4 0  9991
2 40901  97.4589  13.9988 0015128  57.0212  49.6619 15.17438017182373
ZDPS 2B                 
1 40902U 15049D   19005.88517446  .00000525  00000-0  29738-4 0  9997
2 40902  97.4514  11.8366 0015184  53.3685 358.4527 15.17218431182379
XW-2A                   
1 40903U 15049E   19005.81156817  .00001303  00000-0  33350-4 0  9992
2 40903  97.3617  47.4912 0014810  25.0406  85.0397 15.41231089185009
KAITUO 1A               
1 40904U 15049F   19005.83165073  .00000123  00000-0  10017-4 0  9993
2 40904  97.4629  10.7050 0016195  58.6368  34.9092 15.15209121182181
2015-049G               
1 40905U 15049G   19005.77771991  .00000606  00000-0  36713-4 0  9996
2 40905  97.4646   8.4156 0017193  52.9815 297.2036 15.14151220182069
XW-2C                   
1 40906U 15049H   19005.72928704  .00000715  00000-0  41218-4 0  9995
2 40906  97.4636  10.5905 0016356  52.0035  34.1628 15.15458938182163
XW-2D                   
1 40907U 15049J   19005.72628528  .00000738  00000-0  42196-4 0  9998
2 40907  97.4614  10.2686 0015772  50.1887  36.1163 15.15629982182174
LILACSAT 2              
1 40908U 15049K   19005.79518810  .00000347  00000-0  22850-4 0  9999
2 40908  97.4738   9.4240 0017375  53.6259  72.7411 15.13672772182018
XW-2F                   
1 40910U 15049M   19005.84305648  .00000699  00000-0  38755-4 0  9992
2 40910  97.4599  12.0679 0016136  44.0936  76.5556 15.16951140182173
XW-2B                   
1 40911U 15049N   19005.74588042  .00000540  00000-0  31883-4 0  9993
2 40911  97.4645  10.8946 0015697  49.8303   4.5011 15.15564723182073
KAITUO 1B               
1 40912U 15049P   19005.78844258  .00000909  00000-0  46305-4 0  9996
2 40912  97.4501  15.3113 0015936  30.2061  74.5772 15.19220930182425
TIANWANG 1C (TW-1C)     
1 40926U 15051B   19005.83161885  .00006938  00000-0  11521-3 0  9997
2 40926  97.1611  52.3981 0007264 255.9009 191.4566 15.52391312184710
TIANWANG 1A (TW-1A)     
1 40928U 15051D   19005.91313865  .00002115  00000-0  55390-4 0  9991
2 40928  97.1652  40.7730 0010205 314.9319 167.8846 15.39771654183969
LAPAN-A2                
1 40931U 15052B   19005.82616511  .00000657  00000-0  24475-5 0  9990
2 40931   5.9999 145.0360 0013028 353.7573   6.2776 14.76594143177003
E-ST@R-II               
1 41459U 16025D   19005.80470114  .00001524  00000-0  82377-4 0  9990
2 41459  98.1169  84.0659 0169665 188.3668 171.4709 15.04978834147891
AAUSAT 4                
1 41460U 16025E   19005.84029930  .00001377  00000-0  73860-4 0  9995
2 41460  98.1096  84.9698 0159833 182.5200 177.5238 15.06639115147991
NUSAT-1 (FRESCO)        
1 41557U 16033B   19005.89038291  .00001061  00000-0  43027-4 0  9998
2 41557  97.4278  94.3435 0014827 151.0613 209.1451 15.26780599145091
BEESAT-4                
1 41619U 16040W   19004.91948917  .00000967  00000-0  44488-4 0  9998
2 41619  97.3912  70.0530 0010111 237.9263 122.0992 15.22671096128785
ALSAT 1N                
1 41789U 16059G   19005.85438663  .00000055  00000-0  19580-4 0  9995
2 41789  98.0944  70.4964 0028569 167.1828 193.0087 14.64207083121678
CAS-2T & KS-1Q          
1 41847U 16066G   19005.67295815  .00000041  00000-0  16924-4 0  9992
2 41847  98.7287  43.5854 0366102   2.9377 357.3843 14.37949584113420
NAYIF-1 (EO-88)         
1 42017U 17008BX  19004.89972026  .00001010  00000-0  43317-4 0  9991
2 42017  97.4253  73.5547 0007218  42.2826 317.8967 15.25034501104809
LILACSAT-1              
1 42725U 98067ME  19005.56865248  .00065136  00000-0  26546-3 0  9996
2 42725  51.6362  36.0653 0002928 345.8943 150.0237 15.85525530 92430
MAX VALIER SAT          
1 42778U 17036P   19005.14945994  .00000609  00000-0  29911-4 0  9996
2 42778  97.3786  66.2533 0014151  83.6981 276.5867 15.21700391 85218
RADFXSAT (FOX-1B)       
1 43017U 17073E   19005.06788375  .00000706  00000-0  61112-4 0  9990
2 43017  97.7197 292.9093 0258429 334.7235  24.1511 14.78343212 60935
FOX-1D (AO-92)          
1 43137U 18004AC  19005.47098356  .00000740  00000-0  34361-4 0  9990
2 43137  97.5099  73.4851 0010976 109.6658 250.5764 15.23122325 54492
ES'HAIL 2               
1 43700U 18090A   19005.63685283  .00000145  00000-0  00000+0 0  9997
2 43700   0.0350 123.8675 0000533 209.2728  26.8435  1.00271566   654
FOX-1CLIFF (AO-95)      
1 43770U 18099N   19004.81910497  .00000552  00000-0  56195-4 0  9993
2 43770  97.7656  78.6435 0015304 158.3878 201.7992 14.94652627  4795
JY1SAT (JO-97)          
1 43803U 18099AX  19005.47784553  .00000694  00000-0  68378-4 0  9998
2 43803  97.7625  79.3051 0016087 152.3266 207.8814 14.95146516  4880
